[{"OBJECT_NAME":"STARLINK-5132","OBJECT_ID":"2022-125AV","EPOCH":"2026-03-09T15:55:34.055904","MEAN_MOTION":15.08848066,"ECCENTRICITY":0.00012321,"INCLINATION":53.2157,"RA_OF_ASC_NODE":213.8839,"ARG_OF_PERICENTER":76.994,"MEAN_ANOMALY":283.119,"EPHEMERIS_TYPE":0,"CLASSIFICATION_TYPE":"U","NORAD_CAT_ID":54007,"ELEMENT_SET_NO":999,"REV_AT_EPOCH":18946,"BSTAR":5.5956097e-5,"MEAN_MOTION_DOT":6.03e-6,"MEAN_MOTION_DDOT":0},{"OBJECT_NAME":"SL-18 R\/B","OBJECT_ID":"2001-007B","EPOCH":"2026-03-09T23:25:11.323200","MEAN_MOTION":15.07301441,"ECCENTRICITY":0.00085554,"INCLINATION":97.6926,"RA_OF_ASC_NODE":87.6817,"ARG_OF_PERICENTER":353.225,"MEAN_ANOMALY":6.886,"EPHEMERIS_TYPE":0,"CLASSIFICATION_TYPE":"U","NORAD_CAT_ID":26703,"ELEMENT_SET_NO":999,"REV_AT_EPOCH":64619,"BSTAR":0.00021543689,"MEAN_MOTION_DOT":3.19e-5,"MEAN_MOTION_DDOT":0}]
